0 COSMOS 2251 DEB
1 35470U 93036ALQ 13282.50074370  .00028226  00000-0  29043-2 0  8384
2 35470 073.9367 305.4892 0068827 161.3546 348.9617 14.88421269240025
0 COSMOS 2251 DEB
1 35470U 93036ALQ 13282.76411057  .00022292  00000-0  22960-2 0  8398
2 35470 073.9362 304.9594 0068846 160.7779 320.1542 14.88427205240064
0 COSMOS 2251 DEB
1 35470U 93036ALQ 13283.48095590  .00044362  00000-0  45674-2 0  8410
2 35470 073.9341 303.5206 0068815 159.2373 201.2132 14.88450539240177
0 COSMOS 2251 DEB
1 35470U 93036ALQ 13286.10211264  .00018326  00000-0  18820-2 0  8403
2 35470 073.9361 298.2592 0069569 153.7522 206.5278 14.88544945240555
0 COSMOS 2251 DEB
1 35470U 93036ALQ 13287.47417681  .00021697  00000-0  22274-2 0  8419
2 35470 073.9359 295.4956 0068432 149.9757 359.8854 14.88584205240768
0 COSMOS 2251 DEB
1 35470U 93036ALQ 13288.48421824  .00034173  00000-0  34948-2 0  8420
2 35470 073.9363 293.4658 0068333 147.6781 012.7657 14.88647474240913
0 COSMOS 2251 DEB
1 35470U 93036ALQ 13290.07925740  .00029795  00000-0  30444-2 0  8436
2 35470 073.9351 290.2625 0068185 144.0867 281.0519 14.88719936241147
0 COSMOS 2251 DEB
1 35470U 93036ALQ 13291.08671828  .00025755  00000-0  26324-2 0  8448
2 35470 073.9359 288.2379 0067479 141.4205 280.9342 14.88772592241295
0 COSMOS 2251 DEB
1 35470U 93036ALQ 13294.39122247  .00034761  00000-0  35317-2 0  8462
2 35470 073.9348 281.5968 0068037 134.2021 352.4639 14.88918601241792
